STARLINK-6099           
1 57108U 23090H   23248.31958048  .00000767  00000+0  68427-4 0  9992
2 57108  42.9977 214.2859 0001002 274.3390  85.7338 15.04487899 12566
STARLINK-6139           
1 57109U 23090J   23248.30950980 -.00000012  00000+0  13762-4 0  9995
2 57109  42.9997 214.2110 0001112 261.8210  98.2507 15.04486570 12565
STARLINK-6134           
1 57110U 23090K   23247.99052366 -.00002879  00000+0 -18776-3 0  9995
2 57110  42.9983 216.1184 0000499 317.6661  42.4143 15.04498720 12513
STARLINK-6140           
1 57111U 23090L   23248.29380305  .00001308  00000+0  10647-3 0  9990
2 57111  43.0000 214.0951 0001161 270.2640  89.8070 15.04488461 12563
STARLINK-6141           
1 57112U 23090M   23248.31329162 -.00000046  00000+0  11350-4 0  9990
2 57112  42.9998 214.2396 0001104 274.8813  85.1904 15.04489315 12566
STARLINK-6142           
1 57113U 23090N   23248.30052070  .00001217  00000+0  10009-3 0  9990
2 57113  43.0003 214.1447 0001075 270.1023  89.9697 15.04493811 12568
STARLINK-6125           
1 57114U 23090P   23248.29676153  .00000132  00000+0  23847-4 0  9993
2 57114  42.9998 214.1142 0000957 272.8754  87.1979 15.04495328 12568
STARLINK-6085           
1 57115U 23090Q   23248.58334491 -.00028670  00000+0 -21150-2 0  9994
2 57115  42.9994 212.4475 0001508 264.2768 253.9685 15.02552639 11471
STARLINK-6129           
1 57116U 23090R   23248.17413779  .00000955  00000+0  81652-4 0  9996
2 57116  43.0002 214.9166 0000990 258.5850 101.4882 15.04484579 12544
STARLINK-6148           
1 57117U 23090S   23248.58334491 -.00025640  00000+0 -18891-2 0  9998
2 57117  42.9993 212.4014 0001336 267.9754 268.2899 15.02552234 11472
STARLINK-6151           
1 57118U 23090T   23248.22452143  .00000522  00000+0  51244-4 0  9996
2 57118  42.9977 214.4286 0000774 203.2335 156.8473 15.04478339 12556
STARLINK-6150           
1 57119U 23090U   23248.58334491 -.00027392  00000+0 -20195-2 0  9996
2 57119  42.9989 212.3460 0001302 259.3610 300.8756 15.02555450 11470
STARLINK-6147           
1 57120U 23090V   23248.58334491 -.00025990  00000+0 -19153-2 0  9992
2 57120  42.9995 212.4155 0001402 272.3573 257.9103 15.02549546 11472
STARLINK-6152           
1 57121U 23090W   23248.33805318  .00000927  00000+0  83712-4 0  9992
2 57121  43.0003 213.5607 0001068 266.7144  93.3576 15.02535428 12389
STARLINK-6149           
1 57122U 23090X   23248.58334491 -.00028083  00000+0 -20710-2 0  9991
2 57122  42.9994 212.3006 0001367 265.6985 312.6359 15.02556389 11474
STARLINK-6154           
1 57123U 23090Y   23248.20176298  .00001345  00000+0  11457-3 0  9999
2 57123  43.0000 214.2583 0001051 274.3352  85.7370 15.02537799 11410
STARLINK-6146           
1 57124U 23090Z   23248.58334491 -.00028911  00000+0 -21333-2 0  9995
2 57124  42.9997 212.2707 0001376 266.4311 323.9408 15.02546603 11476
STARLINK-6100           
1 57125U 23090AA  23248.58334491 -.00954845  00000+0 -41011-1 0  9994
2 57125  42.9968 201.1877 0001315 271.0247 220.8753 15.24654809 11608
STARLINK-6167           
1 57126U 23090AB  23248.58334491 -.00028677  00000+0 -21155-2 0  9998
2 57126  43.0000 212.2555 0001221 270.5009 325.8678 15.02553552 11476
STARLINK-6165           
1 57127U 23090AC  23248.19732823  .00001137  00000+0  99242-4 0  9991
2 57127  42.9997 214.2269 0001191 271.9702  88.1004 15.02532270 11415
STARLINK-6163           
1 57128U 23090AD  23248.33694229  .00000721  00000+0  68408-4 0  9993
2 57128  42.9996 213.5521 0001081 268.0939  91.9779 15.02536407 12389
STARLINK-6170           
1 57129U 23090AE  23248.58334491 -.00950335  00000+0 -42032-1 0  9992
2 57129  42.9968 201.3074 0001413 255.4148 187.0660 15.23666321 11600
STARLINK-6172           
1 57130U 23090AF  23248.19843767  .00000909  00000+0  82357-4 0  9990
2 57130  42.9996 214.2356 0001123 269.2578  90.8136 15.02533180 11418
STARLINK-6162           
1 57131U 23090AG  23248.58334491 -.00951400  00000+0 -41559-1 0  9992
2 57131  42.9968 201.2567 0001321 270.4800 193.0311 15.24084204 11604
STARLINK-6128           
1 57132U 23090AH  23248.19177206  .00000862  00000+0  78839-4 0  9998
2 57132  43.0001 214.1827 0001129 272.4704  87.6009 15.02540288 11414
STARLINK-6143           
1 57133U 23090AJ  23248.58334491 -.00956301  00000+0 -40773-1 0  9996
2 57133  42.9972 201.1606 0001324 259.9655 243.7977 15.24902158 11605
STARLINK-6133           
1 57134U 23090AK  23248.58334491 -.00950289  00000+0 -41826-1 0  9996
2 57134  42.9966 201.2840 0001352 272.5017 178.3970 15.23828760 11605
STARLINK-6127           
1 57135U 23090AL  23248.58334491 -.00960212  00000+0 -40056-1 0  9998
2 57135  42.9968 201.0759 0001329 259.6105 278.6595 15.25633937 11602
STARLINK-6112           
1 57136U 23090AM  23248.58334491 -.00952601  00000+0 -41427-1 0  9995
2 57136  42.9971 201.2378 0001358 258.7229 212.5237 15.24235107 11601
STARLINK-5347           
1 57137U 23090AN  23248.58334491 -.00957396  00000+0 -40525-1 0  9990
2 57137  42.9968 201.1315 0001303 265.5926 249.7428 15.25145025 11602
STARLINK-5336           
1 57138U 23090AP  23248.58334491 -.00953361  00000+0 -41151-1 0  9995
2 57138  42.9965 201.2058 0001317 263.3006 220.1841 15.24486016 11604
STARLINK-5355           
1 57139U 23090AQ  23248.58334491 -.00961977  00000+0 -39853-1 0  9994
2 57139  42.9975 201.0514 0001356 255.2842 293.7675 15.25866506 11600
STARLINK-5354           
1 57140U 23090AR  23248.58334491 -.00959317  00000+0 -40369-1 0  9995
2 57140  42.9970 201.1086 0001330 258.9386 265.9098 15.25343861 11599
STARLINK-5357           
1 57141U 23090AS  23248.58334491 -.00963550  00000+0 -39455-1 0  9994
2 57141  42.9975 201.0071 0001359 256.9895 310.1491 15.26254542 11602
STARLINK-5361           
1 57142U 23090AT  23248.58334491 -.00957980  00000+0 -38961-1 0  9996
2 57142  42.9978 200.9843 0001366 255.0143 321.7391 15.26462526  5989
STARLINK-5358           
1 57143U 23090AU  23248.58334491 -.00958337  00000+0 -38739-1 0  9997
2 57143  42.9980 200.9623 0001365 256.1972 329.6995 15.26663054  6022
STARLINK-5150           
1 57144U 23090AV  23248.58334491 -.00962731  00000+0 -39726-1 0  9998
2 57144  42.9975 201.0339 0001323 272.6513 282.8941 15.25999588  5989
STARLINK-5768           
1 57145U 23090AW  23248.58334491 -.00957692  00000+0 -37414-1 0  9991
2 57145  42.9981 200.8440 0001445 253.2632  21.5970 15.27775143  6026
STARLINK-5791           
1 57146U 23090AX  23248.58334491 -.00958668  00000+0 -38518-1 0  9992
2 57146  42.9979 200.9404 0001419 250.1320 344.7783 15.26862221  6021
STARLINK-5765           
1 57147U 23090AY  23248.58334491 -.00956450  00000+0 -36921-1 0  9996
2 57147  42.9981 200.8040 0001469 254.0348  37.5137 15.28160598  6028
STARLINK-5788           
1 57148U 23090AZ  23248.58334491 -.00955758  00000+0 -36647-1 0  9992
2 57148  42.9976 200.7804 0001491 252.1161  48.5640 15.28376754  6021
STARLINK-5778           
1 57149U 23090BA  23248.13571729  .00002983  00000+0  26183-4 0  9999
2 57149  42.9993 198.0000 0001482 293.4584  66.6128 15.71358278 12731
STARLINK-5780           
1 57150U 23090BB  23248.58334491 -.00958565  00000+0 -38002-1 0  9991
2 57150  42.9981 200.8930 0001417 254.4331 359.8593 15.27299206  6023
STARLINK-5776           
1 57151U 23090BC  23248.58334491 -.00958285  00000+0 -37612-1 0  9997
2 57151  42.9982 200.8606 0001397 257.9518  10.1568 15.27625345  6023
STARLINK-6164           
1 57152U 23090BD  23248.58334491 -.00958976  00000+0 -38233-1 0  9995
2 57152  42.9982 200.9128 0001349 264.2775 341.8187 15.27116848  6032
STARLINK-5879           
1 57153U 23090BE  23248.58334491 -.00952342  00000+0 -12770-1 0  9995
2 57153  42.9981 195.6075 0001545 251.4642 359.8292 15.59784891  6021
STARLINK-6106           
1 57154U 23090BF  23248.58334491 -.00956843  00000+0 -37103-1 0  9993
2 57154  42.9983 200.8190 0001441 257.0970  27.9946 15.28015445  6029
STARLINK-6108           
1 57155U 23090BG  23248.58334491 -.00954711  00000+0 -36112-1 0  9995
2 57155  42.9977 200.7369 0001473 258.6158  60.2685 15.28814738  6022
STARLINK-6137           
1 57156U 23090BH  23248.58334491 -.00955493  00000+0 -36351-1 0  9999
2 57156  42.9981 200.7558 0001460 255.1817  55.9182 15.28629977  6031
METEOR-M2 3             
1 57166U 23091A   23248.53437376  .00000009  00000+0  23367-4 0  9990
2 57166  98.7581 300.1269 0003172 225.8794 134.2124 14.23840912  9972
STRATOSAT-TK 1 (RS52S)  
1 57167U 23091B   23248.55130883  .00007136  00000+0  51588-3 0  9999
2 57167  97.6581 298.5822 0017930  18.4668 341.7205 15.04226114 10518
2023-091C               
1 57168U 23091C   23248.55387425  .00004546  00000+0  33282-3 0  9999
2 57168  97.6579 298.5775 0018195  16.9563 343.2267 15.03940727 10511
2023-091D               
1 57169U 23091D   23248.54756176  .00003882  00000+0  28419-3 0  9990
2 57169  97.6599 298.5991 0016038  17.1319 343.0444 15.04062276 10510
2023-091E               
1 57170U 23091E   23248.54575939  .00003920  00000+0  28670-3 0  9990
2 57170  97.6605 298.6059 0016192  17.5805 342.5978 15.04090449 10510
2023-091F               
1 57171U 23091F   23248.54391606  .00003842  00000+0  28093-3 0  9990
2 57171  97.6602 298.6052 0015867  16.1888 343.9842 15.04118928 10513
UMKA 1 (RS40S)          
1 57172U 23091G   23248.55488235  .00003996  00000+0  29371-3 0  9997
2 57172  97.6579 298.5775 0018175  16.9750 343.2080 15.03871497 10512
2023-091H               
1 57173U 23091H   23248.57503486  .00004029  00000+0  29910-3 0  9993
2 57173  97.6558 298.5518 0016909  26.7850 333.4245 15.03504137 10516
2023-091J               
1 57174U 23091J   23248.57930754  .00002388  00000+0  18014-3 0  9995
2 57174  97.6560 298.5445 0017047  26.6535 333.5563 15.03283959 10512
CUBEBEL 2 (EU11S)       
1 57175U 23091K   23248.51515277  .00004057  00000+0  30198-3 0  9991
2 57175  97.6563 298.4740 0017326  30.5249 329.6981 15.03388704 10502
